[{"OBJECT_NAME":"ONEWEB-0461","OBJECT_ID":"2022-012AD","EPOCH":"2026-03-09T21:42:35.803584","MEAN_MOTION":13.17649095,"ECCENTRICITY":0.00019956,"INCLINATION":87.917,"RA_OF_ASC_NODE":25.5627,"ARG_OF_PERICENTER":76.4805,"MEAN_ANOMALY":283.6548,"EPHEMERIS_TYPE":0,"CLASSIFICATION_TYPE":"U","NORAD_CAT_ID":51649,"ELEMENT_SET_NO":999,"REV_AT_EPOCH":20081,"BSTAR":-0.00065651041,"MEAN_MOTION_DOT":-2.42e-6,"MEAN_MOTION_DDOT":0},{"OBJECT_NAME":"DELTA 1 DEB","OBJECT_ID":"1975-052CK","EPOCH":"2026-03-09T04:50:03.903648","MEAN_MOTION":12.9849598,"ECCENTRICITY":0.02310963,"INCLINATION":99.7385,"RA_OF_ASC_NODE":144.8323,"ARG_OF_PERICENTER":44.3879,"MEAN_ANOMALY":340.2974,"EPHEMERIS_TYPE":0,"CLASSIFICATION_TYPE":"U","NORAD_CAT_ID":21365,"ELEMENT_SET_NO":999,"REV_AT_EPOCH":64837,"BSTAR":0.0020249653,"MEAN_MOTION_DOT":6.38e-6,"MEAN_MOTION_DDOT":0}]
